NORAD_CAT_ID,OBJECT_NAME,OBJECT_TYPE,EPOCH,MEAN_MOTION,ECCENTRICITY,INCLINATION,RA_OF_ASC_NODE,ARG_OF_PERICENTER,MEAN_ANOMALY,BSTAR,MEAN_MOTION_DOT,MEAN_MOTION_DDOT,TLE_LINE0,TLE_LINE1,TLE_LINE2,SEMIMAJOR_AXIS,PERIOD,APOGEE,PERIGEE,DECAYED
52586.0,STARLINK-3910,PAYLOAD,2022-06-07 22:00:00,15.73193273,0.0002446,53.2175,169.384,15.2056,223.6432,0.00016203,0.00022174,0.0,0 STARLINK-3910,1 52586U 22051BC  22158.91667824  .00022174  00000-0  16203-3 0  9998,2 52586  53.2175 169.3840 0002446  15.2056 223.6432 15.73193273  1304,6727.9140000000025,91.534,351.425,348.134,0.0
52586.0,STARLINK-3910,PAYLOAD,2022-06-08 14:00:01,15.73199256,0.0002739,53.2174,166.0871,16.2726,40.4494,1.1464e-05,9.87e-06,0.0,0 STARLINK-3910,1 52586U 22051BC  22159.58334491  .00000987  00000-0  11464-4 0  9996,2 52586  53.2174 166.0871 0002739  16.2726  40.4494 15.73199256  4584,6727.897,91.533,351.605,347.92,0.0
52586.0,STARLINK-3910,PAYLOAD,2022-06-08 22:00:01,15.73159514,0.0002499,53.2177,164.4356,17.484,128.2219,2.1651e-05,2.413e-05,0.0,0 STARLINK-3910,1 52586U 22051BC  22159.91668981  .00002413  00000-0  21651-4 0  9992,2 52586  53.2177 164.4356 0002499  17.4840 128.2219 15.73159514  4639,6728.011,91.536,351.557,348.194,0.0
52586.0,STARLINK-3910,PAYLOAD,2022-06-09 14:00:01,15.73195666,0.0002774,53.2175,161.1388,16.2313,307.1842,0.00012794,0.0001737,0.0,0 STARLINK-3910,1 52586U 22051BC  22160.58334491  .00017370  00000-0  12794-3 0  9998,2 52586  53.2175 161.1388 0002774  16.2313 307.1842 15.73195666  1303,6727.908,91.533,351.639,347.906,0.0
52586.0,STARLINK-3910,PAYLOAD,2022-06-09 22:00:00,15.73205017,0.0002507,53.2175,159.4876,18.4628,33.8855,0.00030295,0.00042123,0.0,0 STARLINK-3910,1 52586U 22051BC  22160.91667824  .00042123  00000-0  30295-3 0  9994,2 52586  53.2175 159.4876 0002507  18.4628  33.8855 15.73205017  1301,6727.880999999999,91.533,351.43300000000005,348.059,0.0
52586.0,STARLINK-3910,PAYLOAD,2022-06-10 00:00:00,15.73242213,0.0002461,53.2176,159.0755,19.2631,145.3107,-0.00018399,-0.00026413,0.0,0 STARLINK-3910,1 52586U 22051BC  22161.00001157 -.00026413  00000-0 -18399-3 0  9993,2 52586  53.2176 159.0755 0002461  19.2631 145.3107 15.73242213  4802,6727.775,91.531,351.296,347.9840000000001,0.0
52586.0,STARLINK-3910,PAYLOAD,2022-06-10 14:00:01,15.73226098,0.0002672,53.217,156.19,14.4974,215.7394,6.7421e-05,8.862e-05,0.0,0 STARLINK-3910,1 52586U 22051BC  22161.58334491  .00008862  00000-0  67421-4 0  9993,2 52586  53.2170 156.1900 0002672  14.4974 215.7394 15.73226098  1302,6727.821,91.532,351.483,347.88800000000015,0.0
52586.0,STARLINK-3910,PAYLOAD,2022-06-10 22:00:00,15.73231874,0.0002517,53.2174,154.5386,19.6296,299.569,-0.00020977,-0.00030002,0.0,0 STARLINK-3910,1 52586U 22051BC  22161.91667824 -.00030002  00000-0 -20977-3 0  9996,2 52586  53.2174 154.5386 0002517  19.6296 299.5690 15.73231874  4948,6727.804,91.531,351.36300000000006,347.976,0.0
52586.0,STARLINK-3910,PAYLOAD,2022-06-11 22:00:00,15.7320901,0.0002446,53.2171,149.5902,18.94,207.0842,0.00014382,0.00019619,0.0,0 STARLINK-3910,1 52586U 22051BC  22162.91667824  .00019619  00000-0  14382-3 0  9999,2 52586  53.2171 149.5902 0002446  18.9400 207.0842 15.73209010  5102,6727.869000000002,91.533,351.38,348.089,0.0
52586.0,STARLINK-3910,PAYLOAD,2022-06-12 06:00:02,15.73181917,0.0002667,53.217,147.9428,16.6939,298.3462,1.6941e-05,1.754e-05,0.0,0 STARLINK-3910,1 52586U 22051BC  22163.25002315  .00001754  00000-0  16941-4 0  9990,2 52586  53.2170 147.9428 0002667  16.6939 298.3462 15.73181917  5154,6727.946999999999,91.534,351.606,348.017,0.0
52586.0,STARLINK-3910,PAYLOAD,2022-06-12 14:00:01,15.73230395,0.0002673,53.2168,146.2928,15.7582,28.116,-0.00034176,-0.00048382,0.0,0 STARLINK-3910,1 52586U 22051BC  22163.58334491 -.00048382  00000-0 -34176-3 0  9998,2 52586  53.2168 146.2928 0002673  15.7582  28.1160 15.73230395  1301,6727.809,91.531,351.472,347.875,0.0
52586.0,STARLINK-3910,PAYLOAD,2022-06-12 22:00:00,15.73167327,0.0002502,53.2173,144.6417,21.9913,110.8389,0.00034874,0.00048542,0.0,0 STARLINK-3910,1 52586U 22051BC  22163.91667824  .00048542  00000-0  34874-3 0  9995,2 52586  53.2173 144.6417 0002502  21.9913 110.8389 15.73167327  1306,6727.988,91.535,351.537,348.17,0.0
52586.0,STARLINK-3910,PAYLOAD,2022-06-13 06:00:02,15.73234335,0.0002742,53.2175,142.9943,21.1507,200.6748,-0.00027947,-0.00039725,0.0,0 STARLINK-3910,1 52586U 22051BC  22164.25002315 -.00039725  00000-0 -27947-3 0  9999,2 52586  53.2175 142.9943 0002742  21.1507 200.6748 15.73234335  5316,6727.797,91.531,351.50699999999995,347.8180000000001,0.0
52586.0,STARLINK-3910,PAYLOAD,2022-06-13 14:00:01,15.73210077,0.0002647,53.2172,141.344,18.9724,291.7499,0.00013387,0.00018217,0.0,0 STARLINK-3910,1 52586U 22051BC  22164.58334491  .00018217  00000-0  13387-3 0  9992,2 52586  53.2172 141.3440 0002647  18.9724 291.7499 15.73210077  1303,6727.866,91.533,351.51199999999994,347.951,0.0
52586.0,STARLINK-3910,PAYLOAD,2022-06-13 22:00:00,15.73249259,0.0002483,53.2175,139.6934,22.8485,16.8153,-0.00043745,-0.00061706,0.0,0 STARLINK-3910,1 52586U 22051BC  22164.91667824 -.00061706  00000-0 -43745-3 0  9992,2 52586  53.2175 139.6934 0002483  22.8485  16.8153 15.73249259  1307,6727.755,91.53,351.29,347.949,0.0
52586.0,STARLINK-3910,PAYLOAD,2022-06-14 14:00:01,15.73226277,0.0002511,53.2169,136.3958,17.7685,199.7505,-0.00072183,-0.00100852,0.0,0 STARLINK-3910,1 52586U 22051BC  22165.58334491 -.00100852  00000-0 -72183-3 0  9991,2 52586  53.2169 136.3958 0002511  17.7685 199.7505 15.73226277  1304,6727.82,91.532,351.375,347.996,0.0
52586.0,STARLINK-3910,PAYLOAD,2022-06-14 22:00:00,15.73147401,0.0002329,53.2168,134.7452,17.2776,289.15,0.00046766,0.00065381,0.0,0 STARLINK-3910,1 52586U 22051BC  22165.91667824  .00065381  00000-0  46766-3 0  9990,2 52586  53.2168 134.7452 0002329  17.2776 289.1500 15.73147401  5570,6728.045,91.536,351.477,348.343,0.0
52586.0,STARLINK-3910,PAYLOAD,2022-06-15 06:00:00,15.73241083,0.0002588,53.2163,133.0979,19.4209,15.9858,-0.00018338,-0.00026328,0.0,0 STARLINK-3910,1 52586U 22051BC  22166.25001157 -.00026328  00000-0 -18338-3 0  9993,2 52586  53.2163 133.0979 0002588  19.4209  15.9858 15.73241083  5632,6727.778,91.531,351.384,347.902,0.0
52586.0,STARLINK-3910,PAYLOAD,2022-06-15 14:00:01,15.73250743,0.0002467,53.2162,131.4472,17.0638,107.3114,0.00019216,0.00026493,0.0,0 STARLINK-3910,1 52586U 22051BC  22166.58334491  .00026493  00000-0  19216-3 0  9996,2 52586  53.2162 131.4472 0002467  17.0638 107.3114 15.73250743  5686,6727.751,91.53,351.275,347.956,0.0
52586.0,STARLINK-3910,PAYLOAD,2022-06-15 22:00:00,15.73293896,0.0002274,53.2164,129.7971,20.2329,193.1264,9.6262e-05,0.00012964,0.0,0 STARLINK-3910,1 52586U 22051BC  22166.91667824  .00012964  00000-0  96262-4 0  9997,2 52586  53.2164 129.7971 0002274  20.2329 193.1264 15.73293896  1301,6727.627,91.528,351.022,347.963,0.0
52586.0,STARLINK-3910,PAYLOAD,2022-06-16 02:00:01,15.73361702,0.0002457,53.2162,128.9735,18.4578,59.428,-0.00096829,-0.0013531,0.0,0 STARLINK-3910,1 52586U 22051BC  22167.08334491 -.00135310  00000-0 -96829-3 0  9998,2 52586  53.2162 128.9735 0002457  18.4578  59.4280 15.73361702  1300,6727.434,91.524,350.952,347.646,0.0
52586.0,STARLINK-3910,PAYLOAD,2022-06-19 14:00:01,15.73235979,0.0002261,53.2162,111.6541,24.4615,86.9588,-0.0001317,-0.00019094,0.0,0 STARLINK-3910,1 52586U 22051BC  22170.58334491 -.00019094  00000-0 -13170-3 0  9995,2 52586  53.2162 111.6541 0002261  24.4615  86.9588 15.73235979  1308,6727.793000000002,91.531,351.17900000000014,348.136,0.0
52586.0,STARLINK-3910,PAYLOAD,2022-06-19 20:00:01,15.73202457,0.0002134,53.2162,110.4165,25.4467,62.6932,0.00020889,0.00028801,0.0,0 STARLINK-3910,1 52586U 22051BC  22170.83334491  .00028801  00000-0  20889-3 0  9992,2 52586  53.2162 110.4165 0002134  25.4467  62.6932 15.73202457  6351,6727.888000000001,91.533,351.189,348.31699999999995,0.0
52586.0,STARLINK-3910,PAYLOAD,2022-06-19 22:00:00,15.73202702,0.000216,53.2162,110.0047,24.0085,176.36700000000005,0.00025692,0.00035595,0.0,0 STARLINK-3910,1 52586U 22051BC  22170.91667824  .00035595  00000-0  25692-3 0  9995,2 52586  53.2162 110.0047 0002160  24.0085 176.3670 15.73202702  1301,6727.887,91.533,351.206,348.2990000000001,0.0
52586.0,STARLINK-3910,PAYLOAD,2022-06-20 12:00:00,15.73249049,0.0002211,53.2153,107.1183,20.2663,245.7701,-0.00094133,-0.00130987,0.0,0 STARLINK-3910,1 52586U 22051BC  22171.50001157 -.00130987  00000-0 -94133-3 0  9991,2 52586  53.2153 107.1183 0002211  20.2663 245.7701 15.73249049  6458,6727.755,91.53,351.108,348.1330000000001,0.0
52586.0,STARLINK-3910,PAYLOAD,2022-06-20 14:00:01,15.73199864,0.0002097,53.2155,106.7054,20.941,357.3451,-0.00041157,-0.00057991,0.0,0 STARLINK-3910,1 52586U 22051BC  22171.58334491 -.00057991  00000-0 -41157-3 0  9990,2 52586  53.2155 106.7054 0002097  20.9410 357.3451 15.73199864  1301,6727.896,91.533,351.171,348.35,0.0
52586.0,STARLINK-3910,PAYLOAD,2022-06-20 22:00:00,15.73189163,0.0002113,53.2158,105.056,25.1312,82.0648,0.00021802,0.00030074,0.0,0 STARLINK-3910,1 52586U 22051BC  22171.91667824  .00030074  00000-0  21802-3 0  9992,2 52586  53.2158 105.0560 0002113  25.1312  82.0648 15.73189163  6525,6727.926,91.534,351.213,348.369,0.0
52586.0,STARLINK-3910,PAYLOAD,2022-06-21 14:00:01,15.73184558,0.0002078,53.2158,101.7566,19.0363,266.0228,0.00035022,0.00048786,0.0,0 STARLINK-3910,1 52586U 22051BC  22172.58334491  .00048786  00000-0  35022-3 0  9995,2 52586  53.2158 101.7566 0002078  19.0363 266.0228 15.73184558  6624,6727.939,91.534,351.202,348.406,0.0
52586.0,STARLINK-3910,PAYLOAD,2022-06-21 22:00:00,15.73205718,0.0002332,53.2177,100.0807,27.3282,346.5845,-1.9701e-05,-3.387e-05,0.0,0 STARLINK-3910,1 52586U 22051BC  22172.91667824 -.00003387  00000-0 -19701-4 0  9998,2 52586  53.2177 100.0807 0002332  27.3282 346.5845 15.73205718  1301,6727.879,91.533,351.31300000000016,348.175,0.0
